GLOBALSTAR M063 [+]     
1 26081U 00008A   24035.11306615 -.00000030  00000+0  76564-3 0  9996
2 26081  51.9986 345.9313 0004939  76.0230 296.7282 11.86150970 98414
GLOBALSTAR M062 [-]     
1 26082U 00008B   24034.55026661 -.00000010  00000+0  62922-3 0  9995
2 26082  51.9845 125.0162 0007935 125.8370 335.9745 12.43428176434464
GLOBALSTAR M060 [-]     
1 26083U 00008C   24034.33279031 -.00000054  00000+0  37199-3 0  9999
2 26083  52.0045  14.9486 0003132 186.6104 321.1579 12.17625913 91470
GLOBALSTAR M064 [-]     
1 26084U 00008D   24034.58833175 -.00000070  00000+0  19386-3 0  9998
2 26084  52.0030  92.0324 0001997 167.1020 192.9864 11.88515640107696
GLOBALSTAR M065 [+]     
1 31571U 07020A   24035.19740894 -.00000099  00000+0  25872-4 0  9998
2 31571  51.9912 304.9728 0009604 284.2254 240.2952 12.61961823770710
GLOBALSTAR M069 [+]     
1 31573U 07020C   24034.80914609 -.00000066  00000+0  20925-3 0  9991
2 31573  51.9939 262.1547 0001701  70.9234   8.8178 12.62265758771481
GLOBALSTAR M072 [+]     
1 31574U 07020D   24035.18628462 -.00000044  00000+0  33514-3 0  9997
2 31574  52.0111 356.8208 0000510   7.4160   6.3278 12.62283021769968
GLOBALSTAR M071 [P]     
1 31576U 07020F   24034.83571344 -.00000057  00000+0  26113-3 0  9997
2 31576  52.0059 267.1344 0002009  78.4924   1.5862 12.62266910432676
